NORAD_CAT_ID,OBJECT_NAME,OBJECT_TYPE,EPOCH,MEAN_MOTION,ECCENTRICITY,INCLINATION,RA_OF_ASC_NODE,ARG_OF_PERICENTER,MEAN_ANOMALY,BSTAR,MEAN_MOTION_DOT,MEAN_MOTION_DDOT,TLE_LINE0,TLE_LINE1,TLE_LINE2,SEMIMAJOR_AXIS,PERIOD,APOGEE,PERIGEE,DECAYED
52369.0,STARLINK-3841,PAYLOAD,2024-04-03 18:50:31,15.08842925,0.0001413,53.2151,113.5562,97.325,262.7903,0.00013249,1.821e-05,0.0,0 STARLINK-3841,1 52369U 22045AQ  24094.78508796  .00001821  00000-0  13249-3 0  9991,2 52369  53.2151 113.5562 0001413  97.3250 262.7903 15.08842925109500,6917.871,95.437,540.714,538.759,0.0
52369.0,STARLINK-3841,PAYLOAD,2024-04-04 07:33:36,15.08847322,0.0001477,53.2155,111.1773,97.6188,262.4972,0.00012241,1.661e-05,0.0,0 STARLINK-3841,1 52369U 22045AQ  24095.31500465  .00001661  00000-0  12241-3 0  9999,2 52369  53.2155 111.1773 0001477  97.6188 262.4972 15.08847322109582,6917.858,95.437,540.745,538.701,0.0
52369.0,STARLINK-3841,PAYLOAD,2024-04-05 04:13:37,15.08842696,0.0001344,53.2152,107.3113,96.1219,263.9926,0.00018318,2.629e-05,0.0,0 STARLINK-3841,1 52369U 22045AQ  24096.17612538  .00002629  00000-0  18318-3 0  9995,2 52369  53.2152 107.3113 0001344  96.1219 263.9926 15.08842696109715,6917.872,95.437,540.667,538.807,0.0
52369.0,STARLINK-3841,PAYLOAD,2024-04-05 07:24:23,15.08843016,0.0001306,53.2153,106.7162,95.3803,264.7338,0.00013522,1.865e-05,0.0,0 STARLINK-3841,1 52369U 22045AQ  24096.30860493  .00001865  00000-0  13522-3 0  9998,2 52369  53.2153 106.7162 0001306  95.3803 264.7338 15.08843016109736,6917.871,95.437,540.64,538.833,0.0
52369.0,STARLINK-3841,PAYLOAD,2024-04-06 07:15:10,15.08839413,0.0001298,53.2162,102.2566,92.9265,267.1876,3.1888e-05,2.2e-06,0.0,0 STARLINK-3841,1 52369U 22045AQ  24097.30220699  .00000220  00000-0  31888-4 0  9997,2 52369  53.2162 102.2566 0001298  92.9265 267.1876 15.08839413109886,6917.882,95.438,540.645,538.849,0.0
52369.0,STARLINK-3841,PAYLOAD,2024-04-06 23:09:02,15.08837188,0.0001494,53.2177,99.2859,102.2311,257.8849,6.7973e-05,7.94e-06,0.0,0 STARLINK-3841,1 52369U 22045AQ  24097.96460723  .00000794  00000-0  67973-4 0  9993,2 52369  53.2177  99.2859 0001494 102.2311 257.8849 15.08837188109981,6917.889,95.438,540.788,538.72,0.0
52369.0,STARLINK-3841,PAYLOAD,2024-04-07 07:05:58,15.08830233,0.000154,53.2182,97.7983,99.8146,260.302,4.3288e-06,-2.19e-06,0.0,0 STARLINK-3841,1 52369U 22045AQ  24098.29581519 -.00000219  00000-0  43288-5 0  9994,2 52369  53.2182  97.7983 0001540  99.8146 260.3020 15.08830233110039,6917.91,95.438,540.841,538.71,0.0
52369.0,STARLINK-3841,PAYLOAD,2024-04-07 16:38:17,15.08835768,0.0001566,53.2188,96.0144,99.1376,260.9793,2.8523e-05,1.66e-06,0.0,0 STARLINK-3841,1 52369U 22045AQ  24098.69325293  .00000166  00000-0  28523-4 0  9997,2 52369  53.2188  96.0144 0001566  99.1376 260.9793 15.08835768110099,6917.893,95.438,540.842,538.675,0.0
52369.0,STARLINK-3841,PAYLOAD,2024-04-08 08:32:08,15.08835396,0.0001543,53.2186,93.0408,98.9963,261.1203,6.4148e-05,7.33e-06,0.0,0 STARLINK-3841,1 52369U 22045AQ  24099.35565449  .00000733  00000-0  64148-4 0  9993,2 52369  53.2186  93.0408 0001543  98.9963 261.1203 15.08835396110198,6917.894,95.438,540.827,538.692,0.0
52369.0,STARLINK-3841,PAYLOAD,2024-04-08 16:29:03,15.08841129,0.0001538,53.2187,91.5536,92.0097,268.1071,0.00012036,1.628e-05,0.0,0 STARLINK-3841,1 52369U 22045AQ  24099.68685032  .00001628  00000-0  12036-3 0  9992,2 52369  53.2187  91.5536 0001538  92.0097 268.1071 15.08841129110248,6917.877,95.437,540.806,538.678,0.0
52369.0,STARLINK-3841,PAYLOAD,2024-04-09 08:22:55,15.08837869,0.0001462,53.2177,88.5792,86.4603,273.6556,0.00012078,1.635e-05,0.0,0 STARLINK-3841,1 52369U 22045AQ  24100.34925389  .00001635  00000-0  12078-3 0  9994,2 52369  53.2177  88.5792 0001462  86.4603 273.6556 15.08837869110349,6917.887,95.438,540.763,538.741,0.0
52369.0,STARLINK-3841,PAYLOAD,2024-04-09 16:19:50,15.0884488,0.0001498,53.2177,87.0925,86.3642,273.7522,0.00012906,1.767e-05,0.0,0 STARLINK-3841,1 52369U 22045AQ  24100.68044954  .00001767  00000-0  12906-3 0  9997,2 52369  53.2177  87.0925 0001498  86.3642 273.7522 15.08844880110392,6917.865,95.437,540.767,538.694,0.0
52369.0,STARLINK-3841,PAYLOAD,2024-04-10 08:13:42,15.08842909,0.0001419,53.2167,84.1184,89.4033,270.7121,8.7129e-05,1.099e-05,0.0,0 STARLINK-3841,1 52369U 22045AQ  24101.34285095  .00001099  00000-0  87129-4 0  9992,2 52369  53.2167  84.1184 0001419  89.4033 270.7121 15.08842909110490,6917.871,95.437,540.718,538.755,0.0
52369.0,STARLINK-3841,PAYLOAD,2024-04-10 16:10:37,15.08843884,0.0001403,53.2167,82.6308,90.9703,269.145,0.00015527,2.184e-05,0.0,0 STARLINK-3841,1 52369U 22045AQ  24101.67404753  .00002184  00000-0  15527-3 0  9990,2 52369  53.2167  82.6308 0001403  90.9703 269.1450 15.08843884110541,6917.869,95.437,540.704,538.763,0.0
52369.0,STARLINK-3841,PAYLOAD,2024-04-11 04:53:43,15.08832181,0.0001301,53.2166,80.2522,86.8088,273.3053,-1.2434e-05,-4.86e-06,0.0,0 STARLINK-3841,1 52369U 22045AQ  24102.20397907 -.00000486  00000-0 -12434-4 0  9992,2 52369  53.2166  80.2522 0001301  86.8088 273.3053 15.08832181110622,6917.904,95.438,540.669,538.869,0.0
52369.0,STARLINK-3841,PAYLOAD,2024-04-11 08:04:29,15.08838126,0.0001782,53.2196,79.6564,85.544,274.5756,5.3354e-06,-2.03e-06,0.0,0 STARLINK-3841,1 52369U 22045AQ  24102.33645615 -.00000203  00000-0  53354-5 0  9991,2 52369  53.2196  79.6564 0001782  85.5440 274.5756 15.08838126110644,6917.886,95.438,540.984,538.518,0.0
52369.0,STARLINK-3841,PAYLOAD,2024-04-11 16:01:24,15.08843747,0.0001475,53.2175,78.1689,94.1973,265.9187,3.1669e-05,2.16e-06,0.0,0 STARLINK-3841,1 52369U 22045AQ  24102.66765040  .00000216  00000-0  31669-4 0  9999,2 52369  53.2175  78.1689 0001475  94.1973 265.9187 15.08843747110691,6917.869,95.437,540.754,538.714,0.0
52369.0,STARLINK-3841,PAYLOAD,2024-04-12 07:55:16,15.08845934,0.0001463,53.2189,75.1946,98.1772,261.9386,3.0044e-05,1.9e-06,0.0,0 STARLINK-3841,1 52369U 22045AQ  24103.33004918  .00000190  00000-0  30044-4 0  9991,2 52369  53.2189  75.1946 0001463  98.1772 261.9386 15.08845934110795,6917.862,95.437,540.739,538.715,0.0
52369.0,STARLINK-3841,PAYLOAD,2024-04-13 04:35:17,15.08839004,0.0001496,53.2188,71.3295,96.362,263.7543,8.264e-05,1.027e-05,0.0,0 STARLINK-3841,1 52369U 22045AQ  24104.19117331  .00001027  00000-0  82640-4 0  9999,2 52369  53.2188  71.3295 0001496  96.3620 263.7543 15.08839004110928,6917.883,95.438,540.783,538.714,0.0
52369.0,STARLINK-3841,PAYLOAD,2024-04-14 07:36:50,15.08839448,0.000137,53.2183,66.2742,94.5196,265.5952,3.7751e-05,3.13e-06,0.0,0 STARLINK-3841,1 52369U 22045AQ  24105.31725558  .00000313  00000-0  37751-4 0  9990,2 52369  53.2183  66.2742 0001370  94.5196 265.5952 15.08839448111097,6917.882,95.438,540.695,538.799,0.0
52369.0,STARLINK-3841,PAYLOAD,2024-04-15 07:27:37,15.08842702,0.0001427,53.2189,61.8137,101.4357,258.6796,0.00011373,1.523e-05,0.0,0 STARLINK-3841,1 52369U 22045AQ  24106.31085296  .00001523  00000-0  11373-3 0  9994,2 52369  53.2189  61.8137 0001427 101.4357 258.6796 15.08842702111245,6917.872,95.437,540.724,538.75,0.0
52369.0,STARLINK-3841,PAYLOAD,2024-04-16 04:07:38,15.0884506,0.0001363,53.2178,57.9482,89.6007,270.5141,0.00016287,2.305e-05,0.0,0 STARLINK-3841,1 52369U 22045AQ  24107.17197328  .00002305  00000-0  16287-3 0  9997,2 52369  53.2178  57.9482 0001363  89.6007 270.5141 15.08845060111371,6917.865,95.437,540.673,538.787,0.0
52369.0,STARLINK-3841,PAYLOAD,2024-04-16 13:39:57,15.08843385,0.0001383,53.2179,56.1649,87.9786,272.1365,0.00012537,1.708e-05,0.0,0 STARLINK-3841,1 52369U 22045AQ  24107.56941443  .00001708  00000-0  12537-3 0  9995,2 52369  53.2179  56.1649 0001383  87.9786 272.1365 15.08843385111436,6917.87,95.437,540.692,538.778,0.0
52369.0,STARLINK-3841,PAYLOAD,2024-04-17 05:33:48,15.08852154,0.0001244,53.2181,53.191,93.4051,266.7083,0.0001496,2.095e-05,0.0,0 STARLINK-3841,1 52369U 22045AQ  24108.23181000  .00002095  00000-0  14960-3 0  9997,2 52369  53.2181  53.1910 0001244  93.4051 266.7083 15.08852154111531,6917.843,95.437,540.569,538.848,0.0
52369.0,STARLINK-3841,PAYLOAD,2024-04-18 00:38:27,15.08833598,0.0001299,53.2176,49.6244,90.7577,269.3564,0.00014301,1.988e-05,0.0,0 STARLINK-3841,1 52369U 22045AQ  24109.02670291  .00001988  00000-0  14301-3 0  9999,2 52369  53.2176  49.6244 0001299  90.7577 269.3564 15.08833598111655,6917.9,95.438,540.664,538.866,0.0
52369.0,STARLINK-3841,PAYLOAD,2024-04-19 02:04:37,15.08843897,0.0001343,53.218,44.8673,112.7515,247.3619,-5.2823e-06,-3.72e-06,0.0,0 STARLINK-3841,1 52369U 22045AQ  24110.08654299 -.00000372  00000-0 -52823-5 0  9998,2 52369  53.2180  44.8673 0001343 112.7515 247.3619 15.08843897111818,6917.868,95.437,540.663,538.804,0.0
52369.0,STARLINK-3841,PAYLOAD,2024-04-19 19:33:51,15.08840692,0.0001361,53.2178,41.5922,96.8916,263.2231,0.00016056,2.268e-05,0.0,0 STARLINK-3841,1 52369U 22045AQ  24110.81518116  .00002268  00000-0  16056-3 0  9996,2 52369  53.2178  41.5922 0001361  96.8916 263.2231 15.08840692111922,6917.878,95.438,540.685,538.802,0.0
52369.0,STARLINK-3841,PAYLOAD,2024-04-20 05:06:10,15.08852344,0.0001606,53.2183,39.8055,105.4232,254.6938,0.0003323,5.006e-05,0.0,0 STARLINK-3841,1 52369U 22045AQ  24111.21261778  .00005006  00000-0  33230-3 0  9996,2 52369  53.2183  39.8055 0001606 105.4232 254.6938 15.08852344111986,6917.843,95.437,540.819,538.597,0.0
52369.0,STARLINK-3841,PAYLOAD,2024-04-21 01:46:11,15.08833367,0.0001387,53.2179,35.9453,112.8879,247.226,-2.1562e-05,-6.31e-06,0.0,0 STARLINK-3841,1 52369U 22045AQ  24112.07374724 -.00000631  00000-0 -21562-4 0  9994,2 52369  53.2179  35.9453 0001387 112.8879 247.2260 15.08833367112111,6917.901,95.438,540.725,538.806,0.0
52369.0,STARLINK-3841,PAYLOAD,2024-04-21 04:56:58,15.08834749,0.0001247,53.2178,35.3516,95.9836,264.1298,-2.438e-05,-6.76e-06,0.0,0 STARLINK-3841,1 52369U 22045AQ  24112.20622750 -.00000676  00000-0 -24380-4 0  9994,2 52369  53.2178  35.3516 0001247  95.9836 264.1298 15.08834749112139,6917.896,95.438,540.624,538.899,0.0
